{"fetched_at":"2026-07-15T17:46:48.172Z","source":"https://celestrak.org/NORAD/elements/gp.php?GROUP=planet&FORMAT=JSON","constellation":"tanager","records":[{"OBJECT_NAME":"TANAGER-1","OBJECT_ID":"2024-149AR","EPOCH":"2026-07-14T12:01:19.777440","CLASSIFICATION_TYPE":"U","MEAN_MOTION":15.43889256,"ECCENTRICITY":0.00022894,"INCLINATION":97.2318,"RA_OF_ASC_NODE":289.6368,"ARG_OF_PERICENTER":131.3848,"MEAN_ANOMALY":228.7597,"EPHEMERIS_TYPE":0,"NORAD_CAT_ID":60507,"ELEMENT_SET_NO":999,"REV_AT_EPOCH":10725,"BSTAR":0.000006115673,"MEAN_MOTION_DOT":0.00000194,"MEAN_MOTION_DDOT":0}]}
